1 27424U 02022A   13271.15820903  .00000531  00000-0  12798-3 0  7815
2 27424 098.2075 210.9725 0001025 076.9387 341.1730 14.57111305606511